[{"OBJECT_NAME":"STARLINK-36208","OBJECT_ID":"2025-299G","EPOCH":"2026-03-09T22:00:01.999584","MEAN_MOTION":15.27598092,"ECCENTRICITY":0.00010772,"INCLINATION":42.9994,"RA_OF_ASC_NODE":167.3604,"ARG_OF_PERICENTER":316.6192,"MEAN_ANOMALY":92.7186,"EPHEMERIS_TYPE":0,"CLASSIFICATION_TYPE":"U","NORAD_CAT_ID":67108,"ELEMENT_SET_NO":999,"REV_AT_EPOCH":579,"BSTAR":-0.00043004302,"MEAN_MOTION_DOT":-0.00012083,"MEAN_MOTION_DDOT":0},{"OBJECT_NAME":"CZ-2D R\/B","OBJECT_ID":"2025-227B","EPOCH":"2026-03-09T22:11:26.043072","MEAN_MOTION":15.30393637,"ECCENTRICITY":0.00198129,"INCLINATION":80.1514,"RA_OF_ASC_NODE":267.3771,"ARG_OF_PERICENTER":270.3655,"MEAN_ANOMALY":89.5307,"EPHEMERIS_TYPE":0,"CLASSIFICATION_TYPE":"U","NORAD_CAT_ID":65946,"ELEMENT_SET_NO":999,"REV_AT_EPOCH":2254,"BSTAR":0.00032251975,"MEAN_MOTION_DOT":9.557e-5,"MEAN_MOTION_DDOT":0}]
